0 SL-8 R/B
1 21984U 92030J   13281.79357098  .00000013  00000-0  25456-3 0  8337
2 21984 073.9999 140.9606 0124176 322.8156 168.1890 12.22204424952693
0 SL-8 R/B
1 21984U 92030J   13284.15511767  .00000078  00000-0  85536-3 0  8342
2 21984 073.9995 137.9765 0124191 319.4669 118.8309 12.22204437952982
0 SL-8 R/B
1 21984U 92030J   13286.20330328  .00000159  00000-0  16035-2 0  8350
2 21984 073.9991 135.3883 0124203 316.5570 130.7172 12.22204159953235
0 SL-8 R/B
1 21984U 92030J   13288.48576578  .00000067  00000-0  75561-3 0  8360
2 21984 073.9988 132.5039 0124200 313.3202 093.3911 12.22205787953511
0 SL-8 R/B
1 21984U 92030J   13290.52743567  .00000010  00000-0  22930-3 0  8373
2 21984 073.9989 129.9239 0124226 310.4242 076.6041 12.22206671953762
0 SL-8 R/B
1 21984U 92030J   13292.83088041  .00000101  00000-0  10696-2 0  8385
2 21984 073.9991 127.0129 0124246 307.1532 131.6284 12.22205730954047
0 SL-8 R/B
1 21984U 92030J   13295.53092403  .00000066  00000-0  74457-3 0  8399
2 21984 073.9990 123.6007 0124248 303.3273 131.6454 12.22206948954372
